H1 CPF 01  gfz 2022 07 01 12  6822 terrasarx 
H2 0702601  6201 31698    2022 07 01 12 59 42 2022 07 06 00 00 42   120 1 1  0 0 0
H9
10 0 59762  10062.000000  0   -4154682.678  -5095245.257  -2067376.255
10 0 59762  10182.000000  0   -4429526.013  -5142933.036  -1188991.517
10 0 59762  10302.000000  0   -4627038.575  -5096686.952   -289699.674
10 0 59762  10422.000000  0   -4742093.967  -4958654.212    614688.015
10 0 59762  10542.000000  0   -4771071.266  -4732681.201   1508252.000
10 0 59762  10662.000000  0   -4711950.717  -4424220.142   2375254.418
10 0 59762  10782.000000  0   -4564376.562  -4040203.279   3200425.005
10 0 59762  10902.000000  0   -4329686.224  -3588888.324   3969237.124
10 0 59762  11022.000000  0   -4010904.772  -3079678.966   4668169.013
10 0 59762  11142.000000  0   -3612704.284  -2522924.441   5284943.086
10 0 59762  11262.000000  0   -3141331.557  -1929705.607   5808739.194
10 0 59762  11382.000000  0   -2604505.674  -1311611.979   6230381.398
10 0 59762  11502.000000  0   -2011286.531   -680512.175   6542494.836
10 0 59762  11622.000000  0   -1371916.480    -48323.148   6739628.469
10 0 59762  11742.000000  0    -697640.531    573213.921   6818342.513
10 0 59762  11862.000000  0       -508.766   1172750.298   6777264.860
10 0 59762  11982.000000  0     706838.548   1739536.499   6617113.833
10 0 59762  12102.000000  0    1411399.706   2263615.198   6340686.211
10 0 59762  12222.000000  0    2100049.604   2735995.960   5952810.809
10 0 59762  12342.000000  0    2759783.834   3148810.754   5460270.162
10 0 59762  12462.000000  0    3377966.533   3495448.547   4871688.729
10 0 59762  12582.000000  0    3942575.526   3770664.685   4197385.926
10 0 59762  12702.000000  0    4442438.811   3970663.203   3449201.498
10 0 59762  12822.000000  0    4867464.143   4093153.018   2640290.216
10 0 59762  12942.000000  0    5208847.317   4137370.976   1784887.906
10 0 59762  13062.000000  0    5459259.430   4104074.697    898057.838
10 0 59762  13182.000000  0    5613006.203   3995503.875     -4581.728
10 0 59762  13302.000000  0    5666154.869   3815310.849   -907141.653
10 0 59762  13422.000000  0    5616625.407   3568462.196  -1793750.256
10 0 59762  13542.000000  0    5464244.356   3261113.998  -2648840.229
10 0 59762  13662.000000  0    5210759.927   2900464.734  -3457427.095
10 0 59762  13782.000000  0    4859819.985   2494590.307  -4205374.457
10 0 59762  13902.000000  0    4416911.818   2052263.940  -4879641.806
10 0 59762  14022.000000  0    3889266.050   1582765.692  -5468506.330
10 0 59762  14142.000000  0    3285729.797   1095688.540  -5961758.346
10 0 59762  14262.000000  0    2616610.717    600743.927  -6350868.504
10 0 59762  14382.000000  0    1893495.600    107570.751  -6629123.343
10 0 59762  14502.000000  0    1129049.200   -374448.150  -6791730.072
10 0 59762  14622.000000  0     336794.011   -836360.656  -6835891.882
10 0 59762  14742.000000  0    -469125.681  -1269807.289  -6760849.158
10 0 59762  14862.000000  0   -1274189.510  -1667167.923  -6567890.832
10 0 59762  14982.000000  0   -2063756.694  -2021692.952  -6260335.548
10 0 59762  15102.000000  0   -2823326.567  -2327616.443  -5843480.007
10 0 59762  15222.000000  0   -3538799.803  -2580249.595  -5324517.656
10 0 59762  15342.000000  0   -4196739.931  -2776054.596  -4712427.041
10 0 59762  15462.000000  0   -4784628.733  -2912695.902  -4017827.214
10 0 59762  15582.000000  0   -5291109.634  -2989067.625  -3252803.410
10 0 59762  15702.000000  0   -5706215.316  -3005296.573  -2430704.263
10 0 59762  15822.000000  0   -6021573.251  -2962719.979  -1565912.447
10 0 59762  15942.000000  0   -6230583.523  -2863838.324   -673593.222
10 0 59762  16062.000000  0   -6328564.452  -2712243.543    230575.205
10 0 59762  16182.000000  0   -6312861.723  -2512524.266   1130683.461
10 0 59762  16302.000000  0   -6182917.426  -2270150.352   2010880.453
10 0 59762  16422.000000  0   -5940294.704  -1991338.959   2855662.187
10 0 59762  16542.000000  0   -5588660.791  -1682906.379   3650152.112
10 0 59762  16662.000000  0   -5133727.375  -1352109.242   4380370.835
10 0 59762  16782.000000  0   -4583148.184  -1006478.643   5033484.663
10 0 59762  16902.000000  0   -3946381.827   -653653.147   5598029.566
10 0 59762  17022.000000  0   -3234521.523   -301213.388   6064110.537
10 0 59762  17142.000000  0   -2460093.344     43478.865   6423570.973
10 0 59762  17262.000000  0   -1636828.653    373431.782   6670128.963
10 0 59762  17382.000000  0    -779416.620    682162.344   6799480.640
10 0 59762  17502.000000  0      96759.041    963822.141   6809370.196
10 0 59762  17622.000000  0     975895.429   1213307.111   6699626.381
10 0 59762  17742.000000  0    1842054.432   1426350.196   6472165.420
10 0 59762  17862.000000  0    2679450.685   1599594.545   6130959.386
10 0 59762  17982.000000  0    3472739.547   1730646.469   5681971.940
10 0 59762  18102.000000  0    4207301.270   1818107.379   5133059.430
10 0 59762  18222.000000  0    4869513.682   1861584.561   4493839.646
10 0 59762  18342.000000  0    5447012.603   1861681.232   3775530.705
10 0 59762  18462.000000  0    5928933.377   1819963.947   2990755.411
10 0 59762  18582.000000  0    6306122.548   1738908.983   2153319.386
10 0 59762  18702.000000  0    6571321.992   1621828.683   1277966.671
10 0 59762  18822.000000  0    6719315.340   1472779.123    380113.486
10 0 59762  18942.000000  0    6747034.616   1296452.138   -524430.531
10 0 59762  19062.000000  0    6653623.801   1098053.777  -1419750.558
10 0 59762  19182.000000  0    6440456.702    883171.271  -2290114.309
10 0 59762  19302.000000  0    6111111.535    657633.243  -3120255.266
10 0 59762  19422.000000  0    5671300.996    427367.627  -3895645.009
10 0 59762  19542.000000  0    5128760.918    198259.923  -4602748.912
10 0 59762  19662.000000  0    4493100.367    -23984.854  -5229258.746
10 0 59762  19782.000000  0    3775620.061   -233972.431  -5764299.109
10 0 59762  19902.000000  0    2989103.046   -426739.483  -6198607.370
10 0 59762  20022.000000  0    2147580.049   -597861.812  -6524683.636
10 0 59762  20142.000000  0    1266077.022   -743547.994  -6736907.843
10 0 59762  20262.000000  0     360349.086   -860717.890  -6831627.720
10 0 59762  20382.000000  0    -553397.450   -947063.424  -6807214.503
10 0 59762  20502.000000  0   -1458787.952  -1001091.966  -6664087.404
10 0 59762  20622.000000  0   -2339566.471  -1022151.534  -6404707.675
10 0 59762  20742.000000  0   -3179881.125  -1010437.329  -6033539.491
10 0 59762  20862.000000  0   -3964563.428   -966980.009  -5556982.008
10 0 59762  20982.000000  0   -4679402.263   -893615.585  -4983270.827
10 0 59762  21102.000000  0   -5311404.366   -792936.962  -4322346.666
10 0 59762  21222.000000  0   -5849037.150   -668228.620  -3585694.356
10 0 59762  21342.000000  0   -6282450.017   -523384.582  -2786152.164
10 0 59762  21462.000000  0   -6603667.036   -362811.116  -1937693.231
10 0 59762  21582.000000  0   -6806747.049   -191317.333  -1055183.652
10 0 59762  21702.000000  0   -6887906.944    -13994.162   -154118.608
10 0 59762  21822.000000  0   -6845599.521    163914.318    749656.474
10 0 59762  21942.000000  0   -6680548.643    337143.528   1640231.209
10 0 59762  22062.000000  0   -6395739.420    500541.672   2501919.485
10 0 59762  22182.000000  0   -5996362.000    649200.585   3319545.008
10 0 59762  22302.000000  0   -5489710.253    778580.793   4078716.200
10 0 59762  22422.000000  0   -4885039.205    884627.235   4766083.630
10 0 59762  22542.000000  0   -4193385.560    963872.775   5369575.696
10 0 59762  22662.000000  0   -3427356.749   1013527.373   5878608.240
10 0 59762  22782.000000  0   -2600892.856   1031550.933   6284266.788
10 0 59762  22902.000000  0   -1729005.810   1016708.491   6579458.080
10 0 59762  23022.000000  0    -827500.840    968607.202   6759027.508
10 0 59762  23142.000000  0      87311.762    887713.550   6819842.322
10 0 59762  23262.000000  0     998911.022    775350.958   6760842.340
10 0 59762  23382.000000  0    1890862.251    633678.292   6583057.251
10 0 59762  23502.000000  0    2747112.056    465649.209   6289590.086
10 0 59762  23622.000000  0    3552277.700    274952.847   5885567.515
10 0 59762  23742.000000  0    4291926.169     65936.521   5378055.441
10 0 59762  23862.000000  0    4952837.227   -156488.106   4775941.407
10 0 59762  23982.000000  0    5523246.424   -386953.782   4089784.737
10 0 59762  24102.000000  0    5993063.851   -619759.074   3331636.083
10 0 59762  24222.000000  0    6354063.603   -848999.924   2514827.433
10 0 59762  24342.000000  0    6600037.566  -1068708.293   1653735.245
10 0 59762  24462.000000  0    6726909.014  -1272994.611    763523.327
10 0 59762  24582.000000  0    6732806.680  -1456191.249   -140130.091
10 0 59762  24702.000000  0    6618093.558  -1612992.813  -1041318.449
10 0 59762  24822.000000  0    6385349.151  -1738588.587  -1924195.546
10 0 59762  24942.000000  0    6039307.838  -1828784.918  -2773262.468
10 0 59762  25062.000000  0    5586753.921  -1880113.980  -3573644.870
10 0 59762  25182.000000  0    5036378.187  -1889926.355  -4311355.228
10 0 59762  25302.000000  0    4398600.309  -1856465.305  -4973535.798
10 0 59762  25422.000000  0    3685360.709  -1778922.049  -5548678.060
10 0 59762  25542.000000  0    2909887.325  -1657470.594  -6026813.843
10 0 59762  25662.000000  0    2086445.171  -1493281.256  -6399676.863
10 0 59762  25782.000000  0    1230072.127  -1288513.156  -6660835.688
10 0 59762  25902.000000  0     356304.760  -1046286.704  -6805793.718
10 0 59762  26022.000000  0    -519099.342   -770636.552  -6832058.115
10 0 59762  26142.000000  0   -1380439.272   -466445.431  -6739177.648
10 0 59762  26262.000000  0   -2212346.238   -139359.524  -6528749.744
10 0 59762  26382.000000  0   -3000051.501    204313.395  -6204394.820
10 0 59762  26502.000000  0   -3729642.956    557721.244  -5771701.017
99
